[{"OBJECT_NAME":"IRIDIUM 152","OBJECT_ID":"2018-047D","EPOCH":"2026-03-03T06:18:42.283296","MEAN_MOTION":14.34218337,"ECCENTRICITY":0.0002277,"INCLINATION":86.3986,"RA_OF_ASC_NODE":132.6284,"ARG_OF_PERICENTER":92.6988,"MEAN_ANOMALY":267.4469,"EPHEMERIS_TYPE":0,"CLASSIFICATION_TYPE":"U","NORAD_CAT_ID":43479,"ELEMENT_SET_NO":999,"REV_AT_EPOCH":40730,"BSTAR":7.1229e-5,"MEAN_MOTION_DOT":2.19e-6,"MEAN_MOTION_DDOT":0},{"OBJECT_NAME":"IRIDIUM 147","OBJECT_ID":"2018-047E","EPOCH":"2026-03-03T06:27:50.182848","MEAN_MOTION":14.34218599,"ECCENTRICITY":0.0002208,"INCLINATION":86.3988,"RA_OF_ASC_NODE":132.629,"ARG_OF_PERICENTER":99.3465,"MEAN_ANOMALY":260.7981,"EPHEMERIS_TYPE":0,"CLASSIFICATION_TYPE":"U","NORAD_CAT_ID":43480,"ELEMENT_SET_NO":999,"REV_AT_EPOCH":40730,"BSTAR":4.2298e-5,"MEAN_MOTION_DOT":1.38e-6,"MEAN_MOTION_DDOT":0},{"OBJECT_NAME":"IRIDIUM 110","OBJECT_ID":"2018-047F","EPOCH":"2026-03-03T06:36:58.345920","MEAN_MOTION":14.34217883,"ECCENTRICITY":0.0002555,"INCLINATION":86.3988,"RA_OF_ASC_NODE":132.715,"ARG_OF_PERICENTER":90.1802,"MEAN_ANOMALY":269.9686,"EPHEMERIS_TYPE":0,"CLASSIFICATION_TYPE":"U","NORAD_CAT_ID":43481,"ELEMENT_SET_NO":999,"REV_AT_EPOCH":40729,"BSTAR":1.6405e-5,"MEAN_MOTION_DOT":6.6e-7,"MEAN_MOTION_DDOT":0},{"OBJECT_NAME":"IRIDIUM 162","OBJECT_ID":"2018-047G","EPOCH":"2026-03-03T05:24:14.923872","MEAN_MOTION":14.43281636,"ECCENTRICITY":0.0002123,"INCLINATION":86.451,"RA_OF_ASC_NODE":132.676,"ARG_OF_PERICENTER":91.871,"MEAN_ANOMALY":268.2734,"EPHEMERIS_TYPE":0,"CLASSIFICATION_TYPE":"U","NORAD_CAT_ID":43482,"ELEMENT_SET_NO":999,"REV_AT_EPOCH":40984,"BSTAR":0.00011352,"MEAN_MOTION_DOT":4.02e-6,"MEAN_MOTION_DDOT":0},{"OBJECT_NAME":"IRIDIUM 160","OBJECT_ID":"2018-061A","EPOCH":"2026-03-03T12:00:50.455872","MEAN_MOTION":14.34218598,"ECCENTRICITY":0.0002388,"INCLINATION":86.3924,"RA_OF_ASC_NODE":101.0065,"ARG_OF_PERICENTER":92.6815,"MEAN_ANOMALY":267.4654,"EPHEMERIS_TYPE":0,"CLASSIFICATION_TYPE":"U","NORAD_CAT_ID":43569,"ELEMENT_SET_NO":999,"REV_AT_EPOCH":39822,"BSTAR":4.5221e-5,"MEAN_MOTION_DOT":1.46e-6,"MEAN_MOTION_DDOT":0},{"OBJECT_NAME":"IRIDIUM 166","OBJECT_ID":"2018-061B","EPOCH":"2026-03-03T04:15:02.447424","MEAN_MOTION":14.34218237,"ECCENTRICITY":0.0002178,"INCLINATION":86.3921,"RA_OF_ASC_NODE":101.0936,"ARG_OF_PERICENTER":96.3759,"MEAN_ANOMALY":263.7685,"EPHEMERIS_TYPE":0,"CLASSIFICATION_TYPE":"U","NORAD_CAT_ID":43570,"ELEMENT_SET_NO":999,"REV_AT_EPOCH":39820,"BSTAR":4.5737e-5,"MEAN_MOTION_DOT":1.48e-6,"MEAN_MOTION_DDOT":0},{"OBJECT_NAME":"IRIDIUM 158","OBJECT_ID":"2018-061C","EPOCH":"2026-03-03T11:51:42.365376","MEAN_MOTION":14.34216602,"ECCENTRICITY":0.0002013,"INCLINATION":86.3928,"RA_OF_ASC_NODE":100.9706,"ARG_OF_PERICENTER":90.0497,"MEAN_ANOMALY":270.0929,"EPHEMERIS_TYPE":0,"CLASSIFICATION_TYPE":"U","NORAD_CAT_ID":43571,"ELEMENT_SET_NO":999,"REV_AT_EPOCH":39821,"BSTAR":-3.7782e-6,"MEAN_MOTION_DOT":9.0e-8,"MEAN_MOTION_DDOT":0},{"OBJECT_NAME":"IRIDIUM 165","OBJECT_ID":"2018-061D","EPOCH":"2026-03-03T04:05:54.445056","MEAN_MOTION":14.34218044,"ECCENTRICITY":0.0002178,"INCLINATION":86.3921,"RA_OF_ASC_NODE":101.1503,"ARG_OF_PERICENTER":96.2607,"MEAN_ANOMALY":263.8837,"EPHEMERIS_TYPE":0,"CLASSIFICATION_TYPE":"U","NORAD_CAT_ID":43572,"ELEMENT_SET_NO":999,"REV_AT_EPOCH":39819,"BSTAR":3.3591e-5,"MEAN_MOTION_DOT":1.14e-6,"MEAN_MOTION_DDOT":0},{"OBJECT_NAME":"IRIDIUM 155","OBJECT_ID":"2018-061E","EPOCH":"2026-03-03T11:33:26.428896","MEAN_MOTION":14.34217617,"ECCENTRICITY":0.0001954,"INCLINATION":86.3921,"RA_OF_ASC_NODE":100.8944,"ARG_OF_PERICENTER":93.1459,"MEAN_ANOMALY":266.996,"EPHEMERIS_TYPE":0,"CLASSIFICATION_TYPE":"U","NORAD_CAT_ID":43573,"ELEMENT_SET_NO":999,"REV_AT_EPOCH":39820,"BSTAR":-1.3549e-5,"MEAN_MOTION_DOT":-1.8e-7,"MEAN_MOTION_DDOT":0},{"OBJECT_NAME":"IRIDIUM 154","OBJECT_ID":"2018-061F","EPOCH":"2026-03-03T11:06:03.567456","MEAN_MOTION":14.34221554,"ECCENTRICITY":0.0002197,"INCLINATION":86.3925,"RA_OF_ASC_NODE":101.0314,"ARG_OF_PERICENTER":98.9608,"MEAN_ANOMALY":261.1836,"EPHEMERIS_TYPE":0,"CLASSIFICATION_TYPE":"U","NORAD_CAT_ID":43574,"ELEMENT_SET_NO":999,"REV_AT_EPOCH":39825,"BSTAR":0.00010584,"MEAN_MOTION_DOT":3.16e-6,"MEAN_MOTION_DDOT":0},{"OBJECT_NAME":"IRIDIUM 163","OBJECT_ID":"2018-061G","EPOCH":"2026-03-03T03:56:46.499712","MEAN_MOTION":14.34217762,"ECCENTRICITY":0.0002263,"INCLINATION":86.3924,"RA_OF_ASC_NODE":101.0748,"ARG_OF_PERICENTER":91.5304,"MEAN_ANOMALY":268.6151,"EPHEMERIS_TYPE":0,"CLASSIFICATION_TYPE":"U","NORAD_CAT_ID":43575,"ELEMENT_SET_NO":999,"REV_AT_EPOCH":39818,"BSTAR":1.1746e-5,"MEAN_MOTION_DOT":5.3e-7,"MEAN_MOTION_DDOT":0},{"OBJECT_NAME":"IRIDIUM 156","OBJECT_ID":"2018-061H","EPOCH":"2026-03-03T11:42:34.425216","MEAN_MOTION":14.34218052,"ECCENTRICITY":0.0002021,"INCLINATION":86.3927,"RA_OF_ASC_NODE":100.9465,"ARG_OF_PERICENTER":94.8787,"MEAN_ANOMALY":265.2639,"EPHEMERIS_TYPE":0,"CLASSIFICATION_TYPE":"U","NORAD_CAT_ID":43576,"ELEMENT_SET_NO":999,"REV_AT_EPOCH":39822,"BSTAR":2.0614e-5,"MEAN_MOTION_DOT":7.8e-7,"MEAN_MOTION_DDOT":0},{"OBJECT_NAME":"IRIDIUM 164","OBJECT_ID":"2018-061J","EPOCH":"2026-03-03T11:15:10.429344","MEAN_MOTION":14.34218558,"ECCENTRICITY":0.0002326,"INCLINATION":86.3927,"RA_OF_ASC_NODE":100.9932,"ARG_OF_PERICENTER":98.3312,"MEAN_ANOMALY":261.8148,"EPHEMERIS_TYPE":0,"CLASSIFICATION_TYPE":"U","NORAD_CAT_ID":43577,"ELEMENT_SET_NO":999,"REV_AT_EPOCH":39826,"BSTAR":4.2713e-5,"MEAN_MOTION_DOT":1.39e-6,"MEAN_MOTION_DDOT":0},{"OBJECT_NAME":"IRIDIUM 159","OBJECT_ID":"2018-061K","EPOCH":"2026-03-03T12:09:58.505760","MEAN_MOTION":14.34217392,"ECCENTRICITY":0.000227,"INCLINATION":86.3923,"RA_OF_ASC_NODE":100.9159,"ARG_OF_PERICENTER":92.5699,"MEAN_ANOMALY":267.5756,"EPHEMERIS_TYPE":0,"CLASSIFICATION_TYPE":"U","NORAD_CAT_ID":43578,"ELEMENT_SET_NO":999,"REV_AT_EPOCH":39823,"BSTAR":-2.6064e-5,"MEAN_MOTION_DOT":-5.3e-7,"MEAN_MOTION_DDOT":0},{"OBJECT_NAME":"IRIDIUM 180","OBJECT_ID":"2019-002A","EPOCH":"2026-03-03T10:28:46.920288","MEAN_MOTION":14.34217937,"ECCENTRICITY":0.0002285,"INCLINATION":86.3963,"RA_OF_ASC_NODE":37.7791,"ARG_OF_PERICENTER":85.9815,"MEAN_ANOMALY":274.1642,"EPHEMERIS_TYPE":0,"CLASSIFICATION_TYPE":"U","NORAD_CAT_ID":43922,"ELEMENT_SET_NO":999,"REV_AT_EPOCH":37383,"BSTAR":1.5898e-5,"MEAN_MOTION_DOT":6.4e-7,"MEAN_MOTION_DDOT":0},{"OBJECT_NAME":"IRIDIUM 176","OBJECT_ID":"2019-002B","EPOCH":"2026-03-03T09:37:46.430976","MEAN_MOTION":14.7224338,"ECCENTRICITY":0.0003152,"INCLINATION":86.6095,"RA_OF_ASC_NODE":37.7509,"ARG_OF_PERICENTER":82.1159,"MEAN_ANOMALY":278.0415,"EPHEMERIS_TYPE":0,"CLASSIFICATION_TYPE":"U","NORAD_CAT_ID":43923,"ELEMENT_SET_NO":999,"REV_AT_EPOCH":38368,"BSTAR":0.00021302,"MEAN_MOTION_DOT":1.368e-5,"MEAN_MOTION_DDOT":0},{"OBJECT_NAME":"IRIDIUM 168","OBJECT_ID":"2019-002C","EPOCH":"2026-03-03T10:19:38.625024","MEAN_MOTION":14.34220508,"ECCENTRICITY":0.0002211,"INCLINATION":86.3964,"RA_OF_ASC_NODE":37.8561,"ARG_OF_PERICENTER":86.7063,"MEAN_ANOMALY":273.4386,"EPHEMERIS_TYPE":0,"CLASSIFICATION_TYPE":"U","NORAD_CAT_ID":43924,"ELEMENT_SET_NO":999,"REV_AT_EPOCH":37381,"BSTAR":0.00013047,"MEAN_MOTION_DOT":3.85e-6,"MEAN_MOTION_DDOT":0}]
