IRIDIUM 152             
1 43479U 18047D   26062.26298939  .00000219  00000+0  71229-4 0  9997
2 43479  86.3986 132.6284 0002277  92.6988 267.4469 14.34218337407303
IRIDIUM 147             
1 43480U 18047E   26062.26933082  .00000138  00000+0  42298-4 0  9998
2 43480  86.3988 132.6290 0002208  99.3465 260.7981 14.34218599407307
IRIDIUM 110             
1 43481U 18047F   26062.27567530  .00000066  00000+0  16405-4 0  9992
2 43481  86.3988 132.7150 0002555  90.1802 269.9686 14.34217883407299
IRIDIUM 162             
1 43482U 18047G   26062.22517273  .00000402  00000+0  11352-3 0  9996
2 43482  86.4510 132.6760 0002123  91.8710 268.2734 14.43281636409841
IRIDIUM 160             
1 43569U 18061A   26062.50058398  .00000146  00000+0  45221-4 0  9995
2 43569  86.3924 101.0065 0002388  92.6815 267.4654 14.34218598398229
IRIDIUM 166             
1 43570U 18061B   26062.17711166  .00000148  00000+0  45737-4 0  9993
2 43570  86.3921 101.0936 0002178  96.3759 263.7685 14.34218237398201
IRIDIUM 158             
1 43571U 18061C   26062.49424034  .00000009  00000+0 -37782-5 0  9993
2 43571  86.3928 100.9706 0002013  90.0497 270.0929 14.34216602398217
IRIDIUM 165             
1 43572U 18061D   26062.17076904  .00000114  00000+0  33591-4 0  9997
2 43572  86.3921 101.1503 0002178  96.2607 263.8837 14.34218044398199
IRIDIUM 155             
1 43573U 18061E   26062.48155589 -.00000018  00000+0 -13549-4 0  9995
2 43573  86.3921 100.8944 0001954  93.1459 266.9960 14.34217617398205
IRIDIUM 154             
1 43574U 18061F   26062.46254129  .00000316  00000+0  10584-3 0  9998
2 43574  86.3925 101.0314 0002197  98.9608 261.1836 14.34221554398252
IRIDIUM 163             
1 43575U 18061G   26062.16442708  .00000053  00000+0  11746-4 0  9998
2 43575  86.3924 101.0748 0002263  91.5304 268.6151 14.34217762398189
IRIDIUM 156             
1 43576U 18061H   26062.48789844  .00000078  00000+0  20614-4 0  9990
2 43576  86.3927 100.9465 0002021  94.8787 265.2639 14.34218052398222
IRIDIUM 164             
1 43577U 18061J   26062.46887071  .00000139  00000+0  42713-4 0  9992
2 43577  86.3927 100.9932 0002326  98.3312 261.8148 14.34218558398265
IRIDIUM 159             
1 43578U 18061K   26062.50692715 -.00000053  00000+0 -26064-4 0  9995
2 43578  86.3923 100.9159 0002270  92.5699 267.5756 14.34217392398235
IRIDIUM 180             
1 43922U 19002A   26062.43665417  .00000064  00000+0  15898-4 0  9998
2 43922  86.3963  37.7791 0002285  85.9815 274.1642 14.34217937373835
IRIDIUM 176             
1 43923U 19002B   26062.40123184  .00001368  00000+0  21302-3 0  9990
2 43923  86.6095  37.7509 0003152  82.1159 278.0415 14.72243380383684
IRIDIUM 168             
1 43924U 19002C   26062.43030816  .00000385  00000+0  13047-3 0  9998
2 43924  86.3964  37.8561 0002211  86.7063 273.4386 14.34220508373810
